IRIDIUM 39              
1 25042U 97069D   24259.66601984  .00002695  00000+0  71387-3 0  9996
2 25042  86.3951 328.8360 0019745 138.4989 221.7719 14.48341798409219
IRIDIUM 38              
1 25043U 97069E   24259.76954015  .00002020  00000+0  66834-3 0  9997
2 25043  86.4017 348.6120 0000338  58.4093 301.7138 14.37525789406520
IRIDIUM 42              
1 25077U 97077A   24259.79088859  .00001968  00000+0  67390-3 0  9998
2 25077  86.4025 354.4290 0001521  82.8985 277.2384 14.35803987401819
IRIDIUM 24              
1 25105U 97082B   24259.90203595  .00002104  00000+0  64274-3 0  9996
2 25105  86.3973 196.4840 0008990 263.7677  96.2499 14.41462646403696
IRIDIUM 51              
1 25262U 98018A   24259.87654206  .00036632  00000+0  14882-2 0  9997
2 25262  86.4000 189.0777 0130319 205.5060 153.9717 15.16849535405134
